ONEWEB-0427             
1 50499U 21132AG  25270.81915935  .00000025  00000+0  31065-4 0  9998
2 50499  87.9215  27.5303 0001910  97.4728 262.6621 13.18687262187037
ONEWEB-0429             
1 50500U 21132AH  25270.88184605 -.00000162  00000+0 -44330-3 0  9992
2 50500  87.9215  27.5485 0001639 103.3871 256.7444 13.18683600187012
ONEWEB-0430             
1 50501U 21132AJ  25270.87030315 -.00000170  00000+0 -46313-3 0  9992
2 50501  87.9215  27.5450 0001858 108.5928 251.5406 13.18683404187055
ONEWEB-0432             
1 50502U 21132AK  25270.82585844 -.00000020  00000+0 -83073-4 0  9999
2 50502  87.9209  27.5306 0002644 100.3090 259.8340 13.18690534187008
ONEWEB-0440             
1 50503U 21132AL  25270.89009160 -.00000018  00000+0 -78459-4 0  9998
2 50503  87.9215  27.5307 0001317  93.9195 266.2088 13.18685955187008
ONEWEB-0450             
1 50504U 21132AM  25270.88362148 -.00000049  00000+0 -15663-3 0  9997
2 50504  87.9213  27.5566 0001589 109.7271 250.4033 13.18688089187035
ONEWEB-0410             
1 51622U 22012A   25270.47814471  .00000002  00000+0 -28402-4 0  9997
2 51622  87.9076  58.0883 0002825  71.8329 288.3110 13.17648650179106
ONEWEB-0411             
1 51623U 22012B   25270.95407442  .00000565  00000+0  15809-2 0  9995
2 51623  87.8740  88.5552 0001761 106.4986 253.6335 13.10371409174946
